COMMENT,ORIGINATOR,NORAD_CAT_ID,OBJECT_NAME,OBJECT_TYPE,CLASSIFICATION_TYPE,INTLDES,EPOCH,EPOCH_MICROSECONDS,MEAN_MOTION,ECCENTRICITY,INCLINATION,RA_OF_ASC_NODE,ARG_OF_PERICENTER,MEAN_ANOMALY,EPHEMERIS_TYPE,ELEMENT_SET_NO,REV_AT_EPOCH,BSTAR,MEAN_MOTION_DOT,MEAN_MOTION_DDOT,FILE,TLE_LINE0,TLE_LINE1,TLE_LINE2,OBJECT_ID,OBJECT_NUMBER,SEMIMAJOR_AXIS,PERIOD,APOGEE,PERIGEE,DECAYED
"GENERATED VIA SPACETRACK.ORG API","18 SPCS","48894","SPACEBEE-107","PAYLOAD","U","21059R","2022-10-03 07:50:38","264064","15.18113474","0.0009397","97.5703","45.8819","92.8585","267.3724","0","999","7029","0.0010558","0.00021538","0","3590320","0 SPACEBEE-107","1 48894U 21059R   22276.32683176  .00021538  00000-0  10558-2 0  9995","2 48894  97.5703  45.8819 0009397  92.8585 267.3724 15.18113474 70290","2021-059R","48894","6889.679","94.855","518.019","505.070","1"
"GENERATED VIA SPACETRACK.ORG API","18 SPCS","48894","SPACEBEE-107","PAYLOAD","U","21059R","2022-10-03 20:29:57","139584","15.18136426","0.0009356","97.5702","46.4093","90.9418","269.2887","0","999","7037","0.0011524","0.00023536","0","3590423","0 SPACEBEE-107","1 48894U 21059R   22276.85413356  .00023536  00000-0  11524-2 0  9998","2 48894  97.5702  46.4093 0009356  90.9418 269.2887 15.18136426 70371","2021-059R","48894","6889.610","94.853","517.921","505.029","1"
"GENERATED VIA SPACETRACK.ORG API","18 SPCS","48894","SPACEBEE-107","PAYLOAD","U","21059R","2022-10-04 07:34:20","577216","15.18156256","0.0009349","97.5702","46.8709","89.4378","270.7927","0","999","7044","0.001144","0.00023377","0","3591197","0 SPACEBEE-107","1 48894U 21059R   22277.31551594  .00023377  00000-0  11440-2 0  9997","2 48894  97.5702  46.8709 0009349  89.4378 270.7927 15.18156256 70442","2021-059R","48894","6889.550","94.852","517.856","504.974","1"
"GENERATED VIA SPACETRACK.ORG API","18 SPCS","48894","SPACEBEE-107","PAYLOAD","U","21059R","2022-10-05 07:18:00","350208","15.18199983","0.0009367","97.5703","47.8598","86.0598","274.1706","0","999","7059","0.0010987","0.00022474","0","3592420","0 SPACEBEE-107","1 48894U 21059R   22278.30417072  .00022474  00000-0  10987-2 0  9991","2 48894  97.5703  47.8598 0009367  86.0598 274.1706 15.18199983 70590","2021-059R","48894","6889.418","94.849","517.736","504.829","1"
"GENERATED VIA SPACETRACK.ORG API","18 SPCS","48894","SPACEBEE-107","PAYLOAD","U","21059R","2022-10-05 07:18:00","350208","15.18199983","0.0009367","97.5703","47.8598","86.0598","274.1706","0","999","7059","0.0010987","0.00022474","0","3592692","0 SPACEBEE-107","1 48894U 21059R   22278.30417072  .00022474  00000-0  10987-2 0  9991","2 48894  97.5703  47.8598 0009367  86.0598 274.1706 15.18199983 70590","2021-059R","48894","6889.418","94.849","517.736","504.829","1"
"GENERATED VIA SPACETRACK.ORG API","18 SPCS","48894","SPACEBEE-107","PAYLOAD","U","21059R","2022-10-05 19:57:16","569792","15.18222445","0.0009396","97.5703","48.3868","84.7083","275.5222","0","999","7067","0.001041","0.00021301","0","3593077","0 SPACEBEE-107","1 48894U 21059R   22278.83144178  .00021301  00000-0  10410-2 0  9992","2 48894  97.5703  48.3868 0009396  84.7083 275.5222 15.18222445 70679","2021-059R","48894","6889.350","94.848","517.688","504.742","1"
"GENERATED VIA SPACETRACK.ORG API","18 SPCS","48894","SPACEBEE-107","PAYLOAD","U","21059R","2022-10-06 08:36:32","74848","15.18248165","0.0009498","97.5707","48.9151","82.8085","277.4228","0","999","7075","0.0011997","0.00024588","0","3593749","0 SPACEBEE-107","1 48894U 21059R   22279.35870457  .00024588  00000-0  11997-2 0  9997","2 48894  97.5707  48.9151 0009498  82.8085 277.4228 15.18248165 70751","2021-059R","48894","6889.272","94.846","517.680","504.594","1"
"GENERATED VIA SPACETRACK.ORG API","18 SPCS","48894","SPACEBEE-107","PAYLOAD","U","21059R","2022-10-06 08:36:32","74848","15.18248165","0.0009498","97.5707","48.9151","82.8085","277.4228","0","999","7075","0.0011997","0.00024588","0","3594069","0 SPACEBEE-107","1 48894U 21059R   22279.35870457  .00024588  00000-0  11997-2 0  9997","2 48894  97.5707  48.9151 0009498  82.8085 277.4228 15.18248165 70751","2021-059R","48894","6889.272","94.846","517.680","504.594","1"
"GENERATED VIA SPACETRACK.ORG API","18 SPCS","48894","SPACEBEE-107","PAYLOAD","U","21059R","2022-10-07 08:20:06","602496","15.18296012","0.0009408","97.5711","49.9045","79.1141","281.1151","0","999","7090","0.0012706","0.00026086","0","3595509","0 SPACEBEE-107","1 48894U 21059R   22280.34729864  .00026086  00000-0  12706-2 0  9997","2 48894  97.5711  49.9045 0009408  79.1141 281.1151 15.18296012 70900","2021-059R","48894","6889.127","94.843","517.474","504.511","1"
"GENERATED VIA SPACETRACK.ORG API","18 SPCS","48894","SPACEBEE-107","PAYLOAD","U","21059R","2022-10-07 19:24:25","769376","15.18316317","0.0009311","97.5714","50.3659","78.2298","281.998","0","999","7097","0.0011027","0.00022632","0","3595613","0 SPACEBEE-107","1 48894U 21059R   22280.80863159  .00022632  00000-0  11027-2 0  9992","2 48894  97.5714  50.3659 0009311  78.2298 281.9980 15.18316317 70972","2021-059R","48894","6889.066","94.842","517.345","504.516","1"
"GENERATED VIA SPACETRACK.ORG API","18 SPCS","48894","SPACEBEE-107","PAYLOAD","U","21059R","2022-10-07 20:59:19","893984","15.18319264","0.0009292","97.5714","50.4319","77.9252","282.3023","0","999","7098","0.0010968","0.00022512","0","3595773","0 SPACEBEE-107","1 48894U 21059R   22280.87453581  .00022512  00000-0  10968-2 0  9993","2 48894  97.5714  50.4319 0009292  77.9252 282.3023 15.18319264 70988","2021-059R","48894","6889.057","94.842","517.323","504.521","1"
"GENERATED VIA SPACETRACK.ORG API","18 SPCS","48894","SPACEBEE-107","PAYLOAD","U","21059R","2022-10-08 08:03:38","483712","15.18338832","0.0009284","97.5714","50.8937","75.6563","284.5701","0","999","7105","0.0010391","0.00021333","0","3596390","0 SPACEBEE-107","1 48894U 21059R   22281.33586208  .00021333  00000-0  10391-2 0  9998","2 48894  97.5714  50.8937 0009284  75.6563 284.5701 15.18338832 71057","2021-059R","48894","6888.998","94.840","517.258","504.467","1"
"GENERATED VIA SPACETRACK.ORG API","18 SPCS","48894","SPACEBEE-107","PAYLOAD","U","21059R","2022-10-08 19:07:56","524800","15.18361997","0.0009242","97.5718","51.3555","74.361","285.8643","0","999","7112","0.0011921","0.00024511","0","3596607","0 SPACEBEE-107","1 48894U 21059R   22281.79718200  .00024511  00000-0  11921-2 0  9998","2 48894  97.5718  51.3555 0009242  74.3610 285.8643 15.18361997 71121","2021-059R","48894","6888.928","94.839","517.159","504.426","1"
"GENERATED VIA SPACETRACK.ORG API","18 SPCS","48894","SPACEBEE-107","PAYLOAD","U","21059R","2022-10-08 20:42:50","496480","15.18364567","0.0009237","97.5718","51.4214","73.9517","286.2734","0","999","7113","0.001175","0.00024159","0","3596714","0 SPACEBEE-107","1 48894U 21059R   22281.86308445  .00024159  00000-0  11750-2 0  9990","2 48894  97.5718  51.4214 0009237  73.9517 286.2734 15.18364567 71132","2021-059R","48894","6888.920","94.839","517.148","504.422","1"
"GENERATED VIA SPACETRACK.ORG API","18 SPCS","48894","SPACEBEE-107","PAYLOAD","U","21059R","2022-10-09 07:47:07","867104","15.18386718","0.0009209","97.572","51.8834","72.0488","288.1749","0","999","7120","0.0012166","0.00025035","0","3597861","0 SPACEBEE-107","1 48894U 21059R   22282.32439661  .00025035  00000-0  12166-2 0  9993","2 48894  97.5720  51.8834 0009209  72.0488 288.1749 15.18386718 71200","2021-059R","48894","6888.853","94.837","517.062","504.374","1"
"GENERATED VIA SPACETRACK.ORG API","18 SPCS","48894","SPACEBEE-107","PAYLOAD","U","21059R","2022-10-09 22:01:12","52704","15.18420628","0.0009168","97.5723","52.4769","70.0518","290.1702","0","999","7129","0.0012992","0.00026772","0","3599090","0 SPACEBEE-107","1 48894U 21059R   22282.91750061  .00026772  00000-0  12992-2 0  9994","2 48894  97.5723  52.4769 0009168  70.0518 290.1702 15.18420628 71293","2021-059R","48894","6888.750","94.835","516.931","504.300","1"
"GENERATED VIA SPACETRACK.ORG API","18 SPCS","48894","SPACEBEE-107","PAYLOAD","U","21059R","2022-10-10 07:30:34","289568","15.1843773","0.0009198","97.5721","52.8727","68.9548","291.2669","0","999","7135","0.0010693","0.00022019","0","3600948","0 SPACEBEE-107","1 48894U 21059R   22283.31289687  .00022019  00000-0  10693-2 0  9996","2 48894  97.5721  52.8727 0009198  68.9548 291.2669 15.18437730 71354","2021-059R","48894","6888.699","94.834","516.900","504.227","1"
"GENERATED VIA SPACETRACK.ORG API","18 SPCS","48894","SPACEBEE-107","PAYLOAD","U","21059R","2022-10-11 02:29:17","421504","15.18476978","0.0009237","97.5723","53.6642","66.8998","293.3209","0","999","7147","0.0011141","0.00022973","0","3601983","0 SPACEBEE-107","1 48894U 21059R   22284.10367386  .00022973  00000-0  11141-2 0  9995","2 48894  97.5723  53.6642 0009237  66.8998 293.3209 15.18476978 71474","2021-059R","48894","6888.580","94.832","516.808","504.082","1"
"GENERATED VIA SPACETRACK.ORG API","18 SPCS","48894","SPACEBEE-107","PAYLOAD","U","21059R","2022-10-11 07:13:57","961056","15.18486405","0.0009277","97.5724","53.8623","66.2319","293.9887","0","999","7150","0.0011042","0.00022774","0","3603543","0 SPACEBEE-107","1 48894U 21059R   22284.30136529  .00022774  00000-0  11042-2 0  9999","2 48894  97.5724  53.8623 0009277  66.2319 293.9887 15.18486405 71509","2021-059R","48894","6888.551","94.831","516.807","504.026","1"
"GENERATED VIA SPACETRACK.ORG API","18 SPCS","48894","SPACEBEE-107","PAYLOAD","U","21059R","2022-10-12 08:32:12","579360","15.1853173","0.0009289","97.5728","54.9181","63.073","297.1452","0","999","7166","0.0012088","0.00024979","0","3605540","0 SPACEBEE-107","1 48894U 21059R   22285.35570115  .00024979  00000-0  12088-2 0  9998","2 48894  97.5728  54.9181 0009289  63.0730 297.1452 15.18531730 71662","2021-059R","48894","6888.414","94.828","516.678","503.881","1"
